[{"OBJECT_NAME":"BANDWAGON-2 OBJECT Y","OBJECT_ID":"2024-247Y","EPOCH":"2026-03-09T10:19:16.593888","MEAN_MOTION":15.4203694,"ECCENTRICITY":0.00084513,"INCLINATION":44.9978,"RA_OF_ASC_NODE":95.1721,"ARG_OF_PERICENTER":2.035,"MEAN_ANOMALY":358.0572,"EPHEMERIS_TYPE":0,"CLASSIFICATION_TYPE":"U","NORAD_CAT_ID":62399,"ELEMENT_SET_NO":999,"REV_AT_EPOCH":6797,"BSTAR":0.00079019986,"MEAN_MOTION_DOT":0.00034304,"MEAN_MOTION_DDOT":0},{"OBJECT_NAME":"FREGAT DEB","OBJECT_ID":"2011-037NM","EPOCH":"2026-03-09T21:01:07.795488","MEAN_MOTION":13.39665912,"ECCENTRICITY":0.09103246,"INCLINATION":51.3884,"RA_OF_ASC_NODE":232.6021,"ARG_OF_PERICENTER":190.9383,"MEAN_ANOMALY":167.0453,"EPHEMERIS_TYPE":0,"CLASSIFICATION_TYPE":"U","NORAD_CAT_ID":47330,"ELEMENT_SET_NO":999,"REV_AT_EPOCH":22515,"BSTAR":0.024434627,"MEAN_MOTION_DOT":0.0019134,"MEAN_MOTION_DDOT":0}]
